[{"OBJECT_NAME":"ONEWEB-0264","OBJECT_ID":"2021-060R","EPOCH":"2026-05-21T17:41:47.977440","MEAN_MOTION":13.16592514,"ECCENTRICITY":0.0002045,"INCLINATION":87.9107,"RA_OF_ASC_NODE":234.0358,"ARG_OF_PERICENTER":94.2934,"MEAN_ANOMALY":265.843,"EPHEMERIS_TYPE":0,"CLASSIFICATION_TYPE":"U","NORAD_CAT_ID":48982,"ELEMENT_SET_NO":999,"REV_AT_EPOCH":23611,"BSTAR":-0.00033835,"MEAN_MOTION_DOT":-1.16e-06,"MEAN_MOTION_DDOT":0.0},{"OBJECT_NAME":"ONEWEB-0266","OBJECT_ID":"2021-060T","EPOCH":"2026-05-22T05:09:10.333152","MEAN_MOTION":13.16593995,"ECCENTRICITY":0.000202,"INCLINATION":87.9106,"RA_OF_ASC_NODE":233.9311,"ARG_OF_PERICENTER":103.5219,"MEAN_ANOMALY":256.6137,"EPHEMERIS_TYPE":0,"CLASSIFICATION_TYPE":"U","NORAD_CAT_ID":48984,"ELEMENT_SET_NO":999,"REV_AT_EPOCH":23616,"BSTAR":-0.0006631300000000001,"MEAN_MOTION_DOT":-2.41e-06,"MEAN_MOTION_DDOT":0.0},{"OBJECT_NAME":"ONEWEB-0267","OBJECT_ID":"2021-060U","EPOCH":"2026-05-21T18:28:31.788768","MEAN_MOTION":13.16592087,"ECCENTRICITY":0.0001899,"INCLINATION":87.9107,"RA_OF_ASC_NODE":234.0161,"ARG_OF_PERICENTER":94.9602,"MEAN_ANOMALY":265.1746,"EPHEMERIS_TYPE":0,"CLASSIFICATION_TYPE":"U","NORAD_CAT_ID":48985,"ELEMENT_SET_NO":999,"REV_AT_EPOCH":23611,"BSTAR":0.00012747,"MEAN_MOTION_DOT":6.2e-07,"MEAN_MOTION_DDOT":0.0},{"OBJECT_NAME":"ONEWEB-0268","OBJECT_ID":"2021-060V","EPOCH":"2026-05-22T06:28:59.917152","MEAN_MOTION":13.16594555,"ECCENTRICITY":0.000212,"INCLINATION":87.9111,"RA_OF_ASC_NODE":233.9263,"ARG_OF_PERICENTER":98.8828,"MEAN_ANOMALY":261.2543,"EPHEMERIS_TYPE":0,"CLASSIFICATION_TYPE":"U","NORAD_CAT_ID":48986,"ELEMENT_SET_NO":999,"REV_AT_EPOCH":23644,"BSTAR":0.00017999000000000002,"MEAN_MOTION_DOT":8.2e-07,"MEAN_MOTION_DDOT":0.0},{"OBJECT_NAME":"ONEWEB-0269","OBJECT_ID":"2021-060W","EPOCH":"2026-05-22T06:01:37.448832","MEAN_MOTION":13.16596178,"ECCENTRICITY":0.0002238,"INCLINATION":87.9099,"RA_OF_ASC_NODE":233.936,"ARG_OF_PERICENTER":101.7313,"MEAN_ANOMALY":258.4069,"EPHEMERIS_TYPE":0,"CLASSIFICATION_TYPE":"U","NORAD_CAT_ID":48987,"ELEMENT_SET_NO":999,"REV_AT_EPOCH":23621,"BSTAR":0.00040888999999999997,"MEAN_MOTION_DOT":1.69e-06,"MEAN_MOTION_DDOT":0.0},{"OBJECT_NAME":"ONEWEB-0270","OBJECT_ID":"2021-060X","EPOCH":"2026-05-22T06:26:42.160992","MEAN_MOTION":13.16595717,"ECCENTRICITY":0.0001586,"INCLINATION":87.9113,"RA_OF_ASC_NODE":233.9289,"ARG_OF_PERICENTER":98.0052,"MEAN_ANOMALY":262.1259,"EPHEMERIS_TYPE":0,"CLASSIFICATION_TYPE":"U","NORAD_CAT_ID":48988,"ELEMENT_SET_NO":999,"REV_AT_EPOCH":23625,"BSTAR":9.766700000000001e-05,"MEAN_MOTION_DOT":5e-07,"MEAN_MOTION_DDOT":0.0},{"OBJECT_NAME":"ONEWEB-0271","OBJECT_ID":"2021-060Y","EPOCH":"2026-05-22T06:08:27.712320","MEAN_MOTION":13.16596458,"ECCENTRICITY":0.0001809,"INCLINATION":87.9107,"RA_OF_ASC_NODE":233.9218,"ARG_OF_PERICENTER":95.5164,"MEAN_ANOMALY":264.6173,"EPHEMERIS_TYPE":0,"CLASSIFICATION_TYPE":"U","NORAD_CAT_ID":48989,"ELEMENT_SET_NO":999,"REV_AT_EPOCH":23625,"BSTAR":0.00040662,"MEAN_MOTION_DOT":1.68e-06,"MEAN_MOTION_DDOT":0.0},{"OBJECT_NAME":"ONEWEB-0272","OBJECT_ID":"2021-060Z","EPOCH":"2026-05-22T04:50:57.233184","MEAN_MOTION":13.16594947,"ECCENTRICITY":0.0002132,"INCLINATION":87.911,"RA_OF_ASC_NODE":233.9436,"ARG_OF_PERICENTER":92.8097,"MEAN_ANOMALY":267.3278,"EPHEMERIS_TYPE":0,"CLASSIFICATION_TYPE":"U","NORAD_CAT_ID":48990,"ELEMENT_SET_NO":999,"REV_AT_EPOCH":23619,"BSTAR":-6.4608e-05,"MEAN_MOTION_DOT":-1.2e-07,"MEAN_MOTION_DDOT":0.0},{"OBJECT_NAME":"ONEWEB-0273","OBJECT_ID":"2021-060AA","EPOCH":"2026-05-21T18:26:15.364032","MEAN_MOTION":13.16595371,"ECCENTRICITY":0.0001862,"INCLINATION":87.9108,"RA_OF_ASC_NODE":234.0286,"ARG_OF_PERICENTER":99.2112,"MEAN_ANOMALY":260.9229,"EPHEMERIS_TYPE":0,"CLASSIFICATION_TYPE":"U","NORAD_CAT_ID":48991,"ELEMENT_SET_NO":999,"REV_AT_EPOCH":23611,"BSTAR":0.00018914,"MEAN_MOTION_DOT":8.5e-07,"MEAN_MOTION_DDOT":0.0},{"OBJECT_NAME":"ONEWEB-0274","OBJECT_ID":"2021-060AB","EPOCH":"2026-05-22T04:09:54.025344","MEAN_MOTION":13.16595711,"ECCENTRICITY":0.0002215,"INCLINATION":87.9097,"RA_OF_ASC_NODE":233.9537,"ARG_OF_PERICENTER":93.8627,"MEAN_ANOMALY":266.2757,"EPHEMERIS_TYPE":0,"CLASSIFICATION_TYPE":"U","NORAD_CAT_ID":48992,"ELEMENT_SET_NO":999,"REV_AT_EPOCH":23620,"BSTAR":0.00037466,"MEAN_MOTION_DOT":1.56e-06,"MEAN_MOTION_DDOT":0.0},{"OBJECT_NAME":"ONEWEB-0275","OBJECT_ID":"2021-060AC","EPOCH":"2026-05-22T05:43:22.923264","MEAN_MOTION":13.16592449,"ECCENTRICITY":0.0002008,"INCLINATION":87.9107,"RA_OF_ASC_NODE":233.9272,"ARG_OF_PERICENTER":97.3304,"MEAN_ANOMALY":262.8055,"EPHEMERIS_TYPE":0,"CLASSIFICATION_TYPE":"U","NORAD_CAT_ID":48993,"ELEMENT_SET_NO":999,"REV_AT_EPOCH":23614,"BSTAR":0.00029618,"MEAN_MOTION_DOT":1.26e-06,"MEAN_MOTION_DDOT":0.0},{"OBJECT_NAME":"ONEWEB-0276","OBJECT_ID":"2021-060AD","EPOCH":"2026-05-21T17:45:12.132864","MEAN_MOTION":13.16593694,"ECCENTRICITY":0.0002149,"INCLINATION":87.9108,"RA_OF_ASC_NODE":234.0261,"ARG_OF_PERICENTER":97.1914,"MEAN_ANOMALY":262.9461,"EPHEMERIS_TYPE":0,"CLASSIFICATION_TYPE":"U","NORAD_CAT_ID":48994,"ELEMENT_SET_NO":999,"REV_AT_EPOCH":23609,"BSTAR":-0.0010745000000000002,"MEAN_MOTION_DOT":-3.98e-06,"MEAN_MOTION_DDOT":0.0},{"OBJECT_NAME":"ONEWEB-0277","OBJECT_ID":"2021-060AE","EPOCH":"2026-05-22T05:00:03.021120","MEAN_MOTION":13.16592679,"ECCENTRICITY":0.0001846,"INCLINATION":87.91,"RA_OF_ASC_NODE":233.943,"ARG_OF_PERICENTER":98.4136,"MEAN_ANOMALY":261.7205,"EPHEMERIS_TYPE":0,"CLASSIFICATION_TYPE":"U","NORAD_CAT_ID":48995,"ELEMENT_SET_NO":999,"REV_AT_EPOCH":23614,"BSTAR":-0.00026669,"MEAN_MOTION_DOT":-8.9e-07,"MEAN_MOTION_DDOT":0.0},{"OBJECT_NAME":"ONEWEB-0278","OBJECT_ID":"2021-060AF","EPOCH":"2026-05-22T04:46:24.344832","MEAN_MOTION":13.16595722,"ECCENTRICITY":0.0002046,"INCLINATION":87.9105,"RA_OF_ASC_NODE":233.933,"ARG_OF_PERICENTER":107.2412,"MEAN_ANOMALY":252.8943,"EPHEMERIS_TYPE":0,"CLASSIFICATION_TYPE":"U","NORAD_CAT_ID":48996,"ELEMENT_SET_NO":999,"REV_AT_EPOCH":23627,"BSTAR":-2.9531000000000002e-05,"MEAN_MOTION_DOT":2e-08,"MEAN_MOTION_DDOT":0.0},{"OBJECT_NAME":"ONEWEB-0279","OBJECT_ID":"2021-060AG","EPOCH":"2026-05-22T04:57:47.164896","MEAN_MOTION":13.16592974,"ECCENTRICITY":0.0001935,"INCLINATION":87.9105,"RA_OF_ASC_NODE":233.9299,"ARG_OF_PERICENTER":93.3962,"MEAN_ANOMALY":266.739,"EPHEMERIS_TYPE":0,"CLASSIFICATION_TYPE":"U","NORAD_CAT_ID":48997,"ELEMENT_SET_NO":999,"REV_AT_EPOCH":23620,"BSTAR":-7.3602e-06,"MEAN_MOTION_DOT":1e-07,"MEAN_MOTION_DDOT":0.0},{"OBJECT_NAME":"ONEWEB-0280","OBJECT_ID":"2021-060AH","EPOCH":"2026-05-22T05:19:26.265792","MEAN_MOTION":13.16595811,"ECCENTRICITY":0.0001693,"INCLINATION":87.9106,"RA_OF_ASC_NODE":233.9314,"ARG_OF_PERICENTER":107.0182,"MEAN_ANOMALY":253.1135,"EPHEMERIS_TYPE":0,"CLASSIFICATION_TYPE":"U","NORAD_CAT_ID":48998,"ELEMENT_SET_NO":999,"REV_AT_EPOCH":23614,"BSTAR":0.00013143,"MEAN_MOTION_DOT":6.3e-07,"MEAN_MOTION_DDOT":0.0},{"OBJECT_NAME":"ONEWEB-0281","OBJECT_ID":"2021-060AJ","EPOCH":"2026-05-22T05:27:26.017344","MEAN_MOTION":13.16593303,"ECCENTRICITY":0.0002024,"INCLINATION":87.9108,"RA_OF_ASC_NODE":233.9251,"ARG_OF_PERICENTER":102.3334,"MEAN_ANOMALY":257.8023,"EPHEMERIS_TYPE":0,"CLASSIFICATION_TYPE":"U","NORAD_CAT_ID":48999,"ELEMENT_SET_NO":999,"REV_AT_EPOCH":23621,"BSTAR":9.715800000000001e-05,"MEAN_MOTION_DOT":5e-07,"MEAN_MOTION_DDOT":0.0},{"OBJECT_NAME":"ONEWEB-0282","OBJECT_ID":"2021-060AK","EPOCH":"2026-05-22T04:21:19.513440","MEAN_MOTION":13.16596426,"ECCENTRICITY":0.0001871,"INCLINATION":87.9109,"RA_OF_ASC_NODE":233.9437,"ARG_OF_PERICENTER":99.6124,"MEAN_ANOMALY":260.5219,"EPHEMERIS_TYPE":0,"CLASSIFICATION_TYPE":"U","NORAD_CAT_ID":49000,"ELEMENT_SET_NO":999,"REV_AT_EPOCH":23618,"BSTAR":0.00037820999999999997,"MEAN_MOTION_DOT":1.57e-06,"MEAN_MOTION_DDOT":0.0},{"OBJECT_NAME":"ONEWEB-0283","OBJECT_ID":"2021-060AL","EPOCH":"2026-05-22T05:54:46.101888","MEAN_MOTION":13.16596413,"ECCENTRICITY":0.0001929,"INCLINATION":87.9105,"RA_OF_ASC_NODE":233.9302,"ARG_OF_PERICENTER":96.531,"MEAN_ANOMALY":263.6041,"EPHEMERIS_TYPE":0,"CLASSIFICATION_TYPE":"U","NORAD_CAT_ID":49001,"ELEMENT_SET_NO":999,"REV_AT_EPOCH":23620,"BSTAR":0.00043645,"MEAN_MOTION_DOT":1.8e-06,"MEAN_MOTION_DDOT":0.0},{"OBJECT_NAME":"ONEWEB-0284","OBJECT_ID":"2021-060AM","EPOCH":"2026-05-22T05:45:39.591648","MEAN_MOTION":13.16593108,"ECCENTRICITY":0.0001845,"INCLINATION":87.9109,"RA_OF_ASC_NODE":233.9243,"ARG_OF_PERICENTER":110.0231,"MEAN_ANOMALY":250.1099,"EPHEMERIS_TYPE":0,"CLASSIFICATION_TYPE":"U","NORAD_CAT_ID":49002,"ELEMENT_SET_NO":999,"REV_AT_EPOCH":23618,"BSTAR":0.00036389,"MEAN_MOTION_DOT":1.52e-06,"MEAN_MOTION_DDOT":0.0},{"OBJECT_NAME":"ONEWEB-0285","OBJECT_ID":"2021-075A","EPOCH":"2026-05-22T01:31:16.711104","MEAN_MOTION":13.12440903,"ECCENTRICITY":0.0001726,"INCLINATION":87.8961,"RA_OF_ASC_NODE":355.8568,"ARG_OF_PERICENTER":84.8897,"MEAN_ANOMALY":275.2429,"EPHEMERIS_TYPE":0,"CLASSIFICATION_TYPE":"U","NORAD_CAT_ID":49075,"ELEMENT_SET_NO":999,"REV_AT_EPOCH":23178,"BSTAR":-7.8733e-05,"MEAN_MOTION_DOT":-1.6e-07,"MEAN_MOTION_DDOT":0.0},{"OBJECT_NAME":"ONEWEB-0286","OBJECT_ID":"2021-075B","EPOCH":"2026-05-22T02:55:14.651040","MEAN_MOTION":13.1244431,"ECCENTRICITY":0.0001964,"INCLINATION":87.8952,"RA_OF_ASC_NODE":355.8646,"ARG_OF_PERICENTER":89.235,"MEAN_ANOMALY":270.9004,"EPHEMERIS_TYPE":0,"CLASSIFICATION_TYPE":"U","NORAD_CAT_ID":49076,"ELEMENT_SET_NO":999,"REV_AT_EPOCH":23114,"BSTAR":0.0011925,"MEAN_MOTION_DOT":4.42e-06,"MEAN_MOTION_DDOT":0.0},{"OBJECT_NAME":"ONEWEB-0287","OBJECT_ID":"2021-075C","EPOCH":"2026-05-22T02:53:34.619712","MEAN_MOTION":13.17650182,"ECCENTRICITY":0.0002172,"INCLINATION":87.9161,"RA_OF_ASC_NODE":11.0493,"ARG_OF_PERICENTER":93.4554,"MEAN_ANOMALY":266.6826,"EPHEMERIS_TYPE":0,"CLASSIFICATION_TYPE":"U","NORAD_CAT_ID":49077,"ELEMENT_SET_NO":999,"REV_AT_EPOCH":23019,"BSTAR":6.255e-05,"MEAN_MOTION_DOT":3.7e-07,"MEAN_MOTION_DDOT":0.0}]